NORAD_CAT_ID,OBJECT_NAME,OBJECT_TYPE,EPOCH,MEAN_MOTION,ECCENTRICITY,INCLINATION,RA_OF_ASC_NODE,ARG_OF_PERICENTER,MEAN_ANOMALY,BSTAR,MEAN_MOTION_DOT,MEAN_MOTION_DDOT,TLE_LINE0,TLE_LINE1,TLE_LINE2,SEMIMAJOR_AXIS,PERIOD,APOGEE,PERIGEE,DECAYED
52139.0,STARLINK-3730,PAYLOAD,2022-05-29 14:00:01,15.2814925,0.0001601,53.2171,155.5919,52.0179,163.1272,-0.028004,-0.00726508,0.0,0 STARLINK-3730,1 52139U 22029BD  22149.58334491 -.00726508  00000-0 -28004-1 0  9995,2 52139  53.2171 155.5919 0001601  52.0179 163.1272 15.28149250 12426,6859.482,94.232,482.445,480.249,0.0
52139.0,STARLINK-3730,PAYLOAD,2022-05-29 22:00:00,15.27638001,0.0001767,53.2172,154.0468,42.3609,207.272,-0.02837,-0.00724699,0.0,0 STARLINK-3730,1 52139U 22029BD  22149.91667824 -.00724699  00000-0 -28370-1 0  9996,2 52139  53.2172 154.0468 0001767  42.3609 207.2720 15.27638001  1302,6861.012,94.263,484.09,481.665,0.0
52139.0,STARLINK-3730,PAYLOAD,2022-05-30 12:37:07,15.27764325,0.0001399,53.2101,151.2521,17.0799,343.0249,-0.012402,-0.00326604,0.0,0 STARLINK-3730,1 52139U 22029BD  22150.52578563 -.00326604  00000-0 -12402-1 0  9999,2 52139  53.2101 151.2521 0001399  17.0799 343.0249 15.27764325 12578,6860.634,94.255,483.459,481.539,0.0
52139.0,STARLINK-3730,PAYLOAD,2022-05-30 14:11:31,15.27498759,0.000378,53.2092,150.9478,33.8161,326.308,-0.0135449999999999,-0.00352703,0.0,0 STARLINK-3730,1 52139U 22029BD  22150.59133899 -.00352703  00000-0 -13545-1 0  9993,2 52139  53.2092 150.9478 0003780  33.8161 326.3080 15.27498759 12582,6861.429,94.272,485.888,480.701,0.0
52139.0,STARLINK-3730,PAYLOAD,2022-05-30 20:00:01,15.262340099999998,0.0001784,53.2173,149.8093,40.6914,210.6192,-0.029453,-0.00721083,0.0,0 STARLINK-3730,1 52139U 22029BD  22150.83334491 -.00721083  00000-0 -29453-1 0  9997,2 52139  53.2173 149.8093 0001784  40.6914 210.6192 15.26234010 12616,6865.219,94.35,488.309,485.86,0.0
52139.0,STARLINK-3730,PAYLOAD,2022-05-30 22:00:00,15.26106344,0.0001692,53.2172,149.4244,38.0838,311.3316,-0.029595,-0.00721701,0.0,0 STARLINK-3730,1 52139U 22029BD  22150.91667824 -.00721701  00000-0 -29595-1 0  9999,2 52139  53.2172 149.4244 0001692  38.0838 311.3316 15.26106344  1302,6865.602,94.358,488.629,486.306,0.0
52139.0,STARLINK-3730,PAYLOAD,2022-05-31 05:54:25,15.26721112,0.0001141,53.2094,147.9251,51.9267,308.1836,-0.011841,-0.00303032,0.0,0 STARLINK-3730,1 52139U 22029BD  22151.24613104 -.00303032  00000-0 -11841-1 0  9996,2 52139  53.2094 147.9251 0001141  51.9267 308.1836 15.26721112 12685,6863.759,94.32,486.407,484.841,0.0
52139.0,STARLINK-3730,PAYLOAD,2022-05-31 22:00:00,15.24577609,0.0001676999999999,53.2173,144.8125,40.17,43.5118,-0.031076,-0.00723488,0.0,0 STARLINK-3730,1 52139U 22029BD  22151.91667824 -.00723488  00000-0 -31076-1 0  9991,2 52139  53.2173 144.8125 0001677  40.1700  43.5118 15.24577609 12787,6870.191,94.452,493.208,490.904,0.0
52139.0,STARLINK-3730,PAYLOAD,2022-06-01 11:48:28,15.25021288,0.0001272,53.2116,142.1903,56.5311,303.581,-0.0093657,-0.00230002,0.0,0 STARLINK-3730,1 52139U 22029BD  22152.49199331 -.00230002  00000-0 -93657-2 0  9997,2 52139  53.2116 142.1903 0001272  56.5311 303.5810 15.25021288 12875,6868.859,94.425,491.597,489.85,0.0
52139.0,STARLINK-3730,PAYLOAD,2022-06-01 20:00:01,15.23174581,0.0001695,53.2173,140.5946,37.9013,37.3472,-0.032357,-0.00722397,0.0,0 STARLINK-3730,1 52139U 22029BD  22152.83334491 -.00722397  00000-0 -32357-1 0  9995,2 52139  53.2173 140.5946 0001695  37.9013  37.3472 15.23174581 12923,6874.409000000002,94.539,497.44,495.109,0.0
52139.0,STARLINK-3730,PAYLOAD,2022-06-02 16:09:38,15.23268404,0.0002141,53.2121,136.7652,49.6707,310.4479,-0.0096582,-0.00225241,0.0,0 STARLINK-3730,1 52139U 22029BD  22153.67336608 -.00225241  00000-0 -96582-2 0  9997,2 52139  53.2121 136.7652 0002141  49.6707 310.4479 15.23268404 13059,6874.127,94.534,497.464,494.52,0.0
52139.0,STARLINK-3730,PAYLOAD,2022-06-03 03:11:50,15.22477566,0.0001565999999999,53.2113,134.6592,36.132,323.9784,-0.0094779,-0.00216171,0.0,0 STARLINK-3730,1 52139U 22029BD  22154.13322360 -.00216171  00000-0 -94779-2 0  9997,2 52139  53.2113 134.6592 0001566  36.1320 323.9784 15.22477566 13128,6876.507,94.583,499.449,497.295,0.0
52139.0,STARLINK-3730,PAYLOAD,2022-06-03 11:06:25,15.20860396,0.0007229,53.2109,133.1569,88.5352,271.6474,-0.016833,-0.00359242,0.0,0 STARLINK-3730,1 52139U 22029BD  22154.46279043 -.00359242  00000-0 -16833-1 0  9993,2 52139  53.2109 133.1569 0007229  88.5352 271.6474 15.20860396 13174,6881.380999999999,94.683,508.221,498.272,0.0
52139.0,STARLINK-3730,PAYLOAD,2022-06-04 04:26:36,15.21413623,0.0001759,53.2109,129.8475,86.6493,273.4706,-0.0057708,-0.00129196,0.0,0 STARLINK-3730,1 52139U 22029BD  22155.18513899 -.00129196  00000-0 -57708-2 0  9993,2 52139  53.2109 129.8475 0001759  86.6493 273.4706 15.21413623 13287,6879.7130000000025,94.649,502.788,500.36800000000005,0.0
52139.0,STARLINK-3730,PAYLOAD,2022-06-04 10:45:34,15.20475543,0.0012227,53.214,128.6454,7.1677,352.9492,-0.010297,-0.00221806,0.0,0 STARLINK-3730,1 52139U 22029BD  22155.44831813 -.00221806  00000-0 -10297-1 0  9993,2 52139  53.2140 128.6454 0012227   7.1677 352.9492 15.20475543 13328,6882.542,94.707,512.822,495.992,0.0
52139.0,STARLINK-3730,PAYLOAD,2022-06-05 22:00:00,15.16927775,0.000195,53.2174,121.9149,35.8337,76.4556,-0.03882,-0.00721855,0.0,0 STARLINK-3730,1 52139U 22029BD  22156.91667824 -.00721855  00000-0 -38820-1 0  9996,2 52139  53.2174 121.9149 0001950  35.8337  76.4556 15.16927775 13541,6893.269,94.929,516.4780000000002,513.79,0.0
52139.0,STARLINK-3730,PAYLOAD,2022-06-06 14:00:01,15.15908556,0.0001824,53.2174,118.8829,42.299,111.3867,-0.040068,-0.00723461,0.0,0 STARLINK-3730,1 52139U 22029BD  22157.58334491 -.00723461  00000-0 -40068-1 0  9993,2 52139  53.2174 118.8829 0001824  42.2990 111.3867 15.15908556  1308,6896.359,94.993,519.482,516.966,0.0
52139.0,STARLINK-3730,PAYLOAD,2022-06-06 22:00:00,15.15398237,0.0002066,53.2175,117.3677,36.4309,137.0344,-0.040588,-0.00722355,0.0,0 STARLINK-3730,1 52139U 22029BD  22157.91667824 -.00722355  00000-0 -40588-1 0  9997,2 52139  53.2175 117.3677 0002066  36.4309 137.0344 15.15398237 13691,6897.906999999997,95.025,521.197,518.347,0.0
52139.0,STARLINK-3730,PAYLOAD,2022-06-07 14:00:01,15.14379279,0.0001819,53.2174,114.3425,43.8002,167.3849,-0.041913,-0.00724445,0.0,0 STARLINK-3730,1 52139U 22029BD  22158.58334491 -.00724445  00000-0 -41913-1 0  9997,2 52139  53.2174 114.3425 0001819  43.8002 167.3849 15.14379279  1300,6901.001,95.088,524.121,521.61,0.0
52139.0,STARLINK-3730,PAYLOAD,2022-06-07 22:00:00,15.13868306,0.0001952,53.2174,112.8311,40.1799,188.9465,-0.042383,-0.0072222,0.0,0 STARLINK-3730,1 52139U 22029BD  22158.91667824 -.00722220  00000-0 -42383-1 0  9994,2 52139  53.2174 112.8311 0001952  40.1799 188.9465 15.13868306  1304,6902.553000000001,95.121,525.766,523.071,0.0
52139.0,STARLINK-3730,PAYLOAD,2022-06-08 06:00:02,15.13356993,0.0001978,53.2174,111.3229,39.6449,206.8723,-0.042885,-0.0072043,0.0,0 STARLINK-3730,1 52139U 22029BD  22159.25002315 -.00720430  00000-0 -42885-1 0  9998,2 52139  53.2174 111.3229 0001978  39.6449 206.8723 15.13356993 13897,6904.108,95.153,527.339,524.607,0.0
52139.0,STARLINK-3730,PAYLOAD,2022-06-08 14:00:01,15.12849614,0.0001776999999999,53.2174,109.8128,43.863,219.3065,-0.043795,-0.00724926,0.0,0 STARLINK-3730,1 52139U 22029BD  22159.58334491 -.00724926  00000-0 -43795-1 0  9992,2 52139  53.2174 109.8128 0001777  43.8630 219.3065 15.12849614  1300,6905.651999999999,95.185,528.744,526.29,0.0
52139.0,STARLINK-3730,PAYLOAD,2022-06-08 22:00:01,15.12338356,0.0002012,53.2174,108.305,35.7274,243.6082,-0.044243,-0.00722132,0.0,0 STARLINK-3730,1 52139U 22029BD  22159.91668981 -.00722132  00000-0 -44243-1 0  9999,2 52139  53.2174 108.3050 0002012  35.7274 243.6082 15.12338356  1300,6907.208000000001,95.217,530.4630000000002,527.683,0.0
52139.0,STARLINK-3730,PAYLOAD,2022-06-09 06:00:00,15.11826882,0.000177,53.2174,106.8004,42.7601,252.0018,-0.044741,-0.0072,0.0,0 STARLINK-3730,1 52139U 22029BD  22160.25001157 -.00720000  00000-0 -44741-1 0  9999,2 52139  53.2174 106.8004 0001770  42.7601 252.0018 15.11826882 14047,6908.766,95.249,531.854,529.408,0.0
52139.0,STARLINK-3730,PAYLOAD,2022-06-09 14:00:01,15.1131935,0.0001578,53.2174,105.2938,47.885,261.7541,-0.045684,-0.00724477,0.0,0 STARLINK-3730,1 52139U 22029BD  22160.58334491 -.00724477  00000-0 -45684-1 0  9994,2 52139  53.2174 105.2938 0001578  47.8850 261.7541 15.11319350  1304,6910.312,95.281,533.268,531.087,0.0
52139.0,STARLINK-3730,PAYLOAD,2022-06-09 22:00:00,15.10808619,0.0001716,53.2175,103.7897,43.2254,280.6781,-0.046199,-0.00722458,0.0,0 STARLINK-3730,1 52139U 22029BD  22160.91667824 -.00722458  00000-0 -46199-1 0  9999,2 52139  53.2175 103.7897 0001716  43.2254 280.6781 15.10808619  1300,6911.87,95.313,534.9209999999998,532.549,0.0
52139.0,STARLINK-3730,PAYLOAD,2022-06-10 06:00:02,15.10296946,0.0001603,53.2174,102.2881,47.9734,289.6441,-0.046676,-0.00719797,0.0,0 STARLINK-3730,1 52139U 22029BD  22161.25002315 -.00719797  00000-0 -46676-1 0  9997,2 52139  53.2174 102.2881 0001603  47.9734 289.6441 15.10296946 14204,6913.431,95.345,536.404,534.187,0.0
52139.0,STARLINK-3730,PAYLOAD,2022-06-10 14:00:01,15.09788924,0.0001554,53.2174,100.7852,46.9756,303.618,-0.047633,-0.00723978,0.0,0 STARLINK-3730,1 52139U 22029BD  22161.58334491 -.00723978  00000-0 -47633-1 0  9996,2 52139  53.2174 100.7852 0001554  46.9756 303.6180 15.09788924  1307,6914.981,95.378,537.9209999999998,535.7719999999998,0.0
52139.0,STARLINK-3730,PAYLOAD,2022-06-10 22:00:00,15.0918449,0.0001809,53.2176,99.2859,41.3371,321.6992,-0.030497,-0.00459926,0.0,0 STARLINK-3730,1 52139U 22029BD  22161.91667824 -.00459926  00000-0 -30497-1 0  9991,2 52139  53.2176  99.2859 0001809  41.3371 321.6992 15.09184490  1313,6916.828,95.416,539.944,537.441,0.0
